[Satellite]
VERSION=1.1
NAME=GLOBALSTAR M083 [+]
NICKNAME=GLOBALSTAR M083 [+]
TLE1=1 37739U 11033A   15054.25741025 -.00000102  00000-0  12500-4 0  9994
TLE2=2 37739  51.9880 355.9148 0000324 352.5856 173.1167 12.62267512171492
